{
  "type": "FeatureCollection",
  "features": [
    {
      "type": "Feature",
      "properties": {
        "norad_id": 24946,
        "name": "IRIDIUM 33",
        "group": "iridium-33-debris",
        "lat": 59.99210873397476,
        "lon": 74.74578614130432,
        "alt_km": 773.1160127358553,
        "timestamp": "2025-12-12T03:50:52.802695+00:00",
        "meta_object_name": "IRIDIUM 33",
        "meta_object_id": "1997-051C",
        "meta_epoch": "2025-12-11T12:30:24.203808",
        "meta_mean_motion": 14.35036393,
        "meta_eccentricity": 0.00068891,
        "meta_inclination": 86.387,
        "meta_ra_of_asc_node": 68.7332,
        "meta_arg_of_pericenter": 204.7414,
        "meta_mean_anomaly": 155.3453,
        "meta_ephemeris_type": 0,
        "meta_classification_type": "U",
        "meta_norad_cat_id": 24946,
        "meta_element_set_no": 999,
        "meta_rev_at_epoch": 47817,
        "meta_bstar": 0.00020258749,
        "meta_mean_motion_dot": 5.97e-06,
        "meta_mean_motion_ddot": 0,
        "tle_line1": "1 24946U 97051C   25345.52111347  .00000597  00000+0  20259-3 0  9991",
        "tle_line2": "2 24946  86.3870  68.7332 0006889 204.7414 155.3453 14.35036393478171"
      },
      "geometry": {
        "type": "Point",
        "coordinates": [
          74.74578614130432,
          59.99210873397476
        ]
      }
    },
    {
      "type": "Feature",
      "properties": {
        "norad_id": 33773,
        "name": "IRIDIUM 33 DEB",
        "group": "iridium-33-debris",
        "lat": -0.026946489064290733,
        "lon": 60.83362975526154,
        "alt_km": 758.2720598230162,
        "timestamp": "2025-12-12T03:50:52.802738+00:00",
        "meta_object_name": "IRIDIUM 33 DEB",
        "meta_object_id": "1997-051L",
        "meta_epoch": "2025-12-11T11:12:30.293856",
        "meta_mean_motion": 14.43253357,
        "meta_eccentricity": 0.00123509,
        "meta_inclination": 86.4014,
        "meta_ra_of_asc_node": 61.129,
        "meta_arg_of_pericenter": 150.1569,
        "meta_mean_anomaly": 210.0339,
        "meta_ephemeris_type": 0,
        "meta_classification_type": "U",
        "meta_norad_cat_id": 33773,
        "meta_element_set_no": 999,
        "meta_rev_at_epoch": 88329,
        "meta_bstar": 0.00051200046,
        "meta_mean_motion_dot": 1.743e-05,
        "meta_mean_motion_ddot": 0,
        "tle_line1": "1 33773U 97051L   25345.46701729  .00001743  00000+0  51200-3 0  9995",
        "tle_line2": "2 33773  86.4014  61.1290 0012350 150.1569 210.0339 14.43253357883290"
      },
      "geometry": {
        "type": "Point",
        "coordinates": [
          60.83362975526154,
          -0.026946489064290733
        ]
      }
    },
    {
      "type": "Feature",
      "properties": {
        "norad_id": 33775,
        "name": "IRIDIUM 33 DEB",
        "group": "iridium-33-debris",
        "lat": 85.4335389848871,
        "lon": 102.56820591280248,
        "alt_km": 742.577404532015,
        "timestamp": "2025-12-12T03:50:52.802754+00:00",
        "meta_object_name": "IRIDIUM 33 DEB",
        "meta_object_id": "1997-051N",
        "meta_epoch": "2025-12-11T14:47:57.817824",
        "meta_mean_motion": 14.41464815,
        "meta_eccentricity": 0.00141536,
        "meta_inclination": 86.3638,
        "meta_ra_of_asc_node": 50.0331,
        "meta_arg_of_pericenter": 158.1068,
        "meta_mean_anomaly": 349.7153,
        "meta_ephemeris_type": 0,
        "meta_classification_type": "U",
        "meta_norad_cat_id": 33775,
        "meta_element_set_no": 999,
        "meta_rev_at_epoch": 88124,
        "meta_bstar": 0.00050169229,
        "meta_mean_motion_dot": 1.648e-05,
        "meta_mean_motion_ddot": 0,
        "tle_line1": "1 33775U 97051N   25345.61664141  .00001648  00000+0  50169-3 0  9997",
        "tle_line2": "2 33775  86.3638  50.0331 0014153 158.1068 349.7153 14.41464815881249"
      },
      "geometry": {
        "type": "Point",
        "coordinates": [
          102.56820591280248,
          85.4335389848871
        ]
      }
    },
    {
      "type": "Feature",
      "properties": {
        "norad_id": 33776,
        "name": "IRIDIUM 33 DEB",
        "group": "iridium-33-debris",
        "lat": -36.07287070296214,
        "lon": 78.39326446984815,
        "alt_km": 777.4717789155784,
        "timestamp": "2025-12-12T03:50:52.802767+00:00",
        "meta_object_name": "IRIDIUM 33 DEB",
        "meta_object_id": "1997-051P",
        "meta_epoch": "2025-12-11T13:02:15.250848",
        "meta_mean_motion": 14.3823254,
        "meta_eccentricity": 0.00142057,
        "meta_inclination": 86.4037,
        "meta_ra_of_asc_node": 81.2783,
        "meta_arg_of_pericenter": 194.3086,
        "meta_mean_anomaly": 176.4153,
        "meta_ephemeris_type": 0,
        "meta_classification_type": "U",
        "meta_norad_cat_id": 33776,
        "meta_element_set_no": 999,
        "meta_rev_at_epoch": 88065,
        "meta_bstar": 0.00050678286,
        "meta_mean_motion_dot": 1.56e-05,
        "meta_mean_motion_ddot": 0,
        "tle_line1": "1 33776U 97051P   25345.54323207  .00001560  00000+0  50678-3 0  9993",
        "tle_line2": "2 33776  86.4037  81.2783 0014205 194.3086 176.4153 14.38232540880654"
      },
      "geometry": {
        "type": "Point",
        "coordinates": [
          78.39326446984815,
          -36.07287070296214
        ]
      }
    },
    {
      "type": "Feature",
      "properties": {
        "norad_id": 33777,
        "name": "IRIDIUM 33 DEB",
        "group": "iridium-33-debris",
        "lat": 74.86560340389734,
        "lon": 48.99767309070753,
        "alt_km": 703.9534386356636,
        "timestamp": "2025-12-12T03:50:52.802780+00:00",
        "meta_object_name": "IRIDIUM 33 DEB",
        "meta_object_id": "1997-051Q",
        "meta_epoch": "2025-12-11T11:00:16.115904",
        "meta_mean_motion": 14.5560175,
        "meta_eccentricity": 0.00050951,
        "meta_inclination": 86.3785,
        "meta_ra_of_asc_node": 35.7605,
        "meta_arg_of_pericenter": 254.7842,
        "meta_mean_anomaly": 105.2803,
        "meta_ephemeris_type": 0,
        "meta_classification_type": "U",
        "meta_norad_cat_id": 33777,
        "meta_element_set_no": 999,
        "meta_rev_at_epoch": 88515,
        "meta_bstar": 0.0016387013,
        "meta_mean_motion_dot": 7.169e-05,
        "meta_mean_motion_ddot": 0,
        "tle_line1": "1 33777U 97051Q   25345.45851986  .00007169  00000+0  16387-2 0  9993",
        "tle_line2": "2 33777  86.3785  35.7605 0005095 254.7842 105.2803 14.55601750885153"
      },
      "geometry": {
        "type": "Point",
        "coordinates": [
          48.99767309070753,
          74.86560340389734
        ]
      }
    },
    {
      "type": "Feature",
      "properties": {
        "norad_id": 33850,
        "name": "IRIDIUM 33 DEB",
        "group": "iridium-33-debris",
        "lat": 66.43691832619909,
        "lon": 38.86426232975741,
        "alt_km": 745.9203285729018,
        "timestamp": "2025-12-12T03:50:52.802793+00:00",
        "meta_object_name": "IRIDIUM 33 DEB",
        "meta_object_id": "1997-051T",
        "meta_epoch": "2025-12-11T13:10:35.882688",
        "meta_mean_motion": 14.42142771,
        "meta_eccentricity": 0.00120846,
        "meta_inclination": 86.3419,
        "meta_ra_of_asc_node": 30.6919,
        "meta_arg_of_pericenter": 164.7398,
        "meta_mean_anomaly": 330.4343,
        "meta_ephemeris_type": 0,
        "meta_classification_type": "U",
        "meta_norad_cat_id": 33850,
        "meta_element_set_no": 999,
        "meta_rev_at_epoch": 88135,
        "meta_bstar": 0.00047038266,
        "meta_mean_motion_dot": 1.568e-05,
        "meta_mean_motion_ddot": 0,
        "tle_line1": "1 33850U 97051T   25345.54902642  .00001568  00000+0  47038-3 0  9996",
        "tle_line2": "2 33850  86.3419  30.6919 0012084 164.7398 330.4343 14.42142771881351"
      },
      "geometry": {
        "type": "Point",
        "coordinates": [
          38.86426232975741,
          66.43691832619909
        ]
      }
    },
    {
      "type": "Feature",
      "properties": {
        "norad_id": 33853,
        "name": "IRIDIUM 33 DEB",
        "group": "iridium-33-debris",
        "lat": 2.2391956382603526,
        "lon": 169.90894291844612,
        "alt_km": 822.1178115285329,
        "timestamp": "2025-12-12T03:50:52.802806+00:00",
        "meta_object_name": "IRIDIUM 33 DEB",
        "meta_object_id": "1997-051W",
        "meta_epoch": "2025-12-11T12:17:32.786592",
        "meta_mean_motion": 13.99052032,
        "meta_eccentricity": 0.02070266,
        "meta_inclination": 86.0002,
        "meta_ra_of_asc_node": 350.3497,
        "meta_arg_of_pericenter": 239.623,
        "meta_mean_anomaly": 277.5774,
        "meta_ephemeris_type": 0,
        "meta_classification_type": "U",
        "meta_norad_cat_id": 33853,
        "meta_element_set_no": 999,
        "meta_rev_at_epoch": 85328,
        "meta_bstar": 0.0032102135,
        "meta_mean_motion_dot": 5.595e-05,
        "meta_mean_motion_ddot": 0,
        "tle_line1": "1 33853U 97051W   25345.51218503  .00005595  00000+0  32102-2 0  9991",
        "tle_line2": "2 33853  86.0002 350.3497 0207026 239.6230 277.5774 13.99052032853282"
      },
      "geometry": {
        "type": "Point",
        "coordinates": [
          169.90894291844612,
          2.2391956382603526
        ]
      }
    }
  ]
}